NORAD_CAT_ID,OBJECT_NAME,OBJECT_TYPE,EPOCH,MEAN_MOTION,ECCENTRICITY,INCLINATION,RA_OF_ASC_NODE,ARG_OF_PERICENTER,MEAN_ANOMALY,BSTAR,MEAN_MOTION_DOT,MEAN_MOTION_DDOT,TLE_LINE0,TLE_LINE1,TLE_LINE2,SEMIMAJOR_AXIS,PERIOD,APOGEE,PERIGEE,DECAYED
52539.0,STARLINK-3757,PAYLOAD,2022-09-15 14:00:01,15.08850574,0.0001486999999999,53.2162,75.351,62.75899999999999,107.3937,-0.0016679,-0.00026742,0.0,0 STARLINK-3757,1 52539U 22051G   22258.58334491 -.00026742  00000-0 -16679-2 0  9994,2 52539  53.2162  75.3510 0001487  62.7590 107.3937 15.08850574  1302,6917.848000000001,95.437,540.742,538.684,0.0
52539.0,STARLINK-3757,PAYLOAD,2022-09-15 19:36:30,15.08838164,0.0001607,53.2176,74.3023,62.4848,297.6307,6.0448e-05,6.74e-06,0.0,0 STARLINK-3757,1 52539U 22051G   22258.81701562  .00000674  00000-0  60448-4 0  9996,2 52539  53.2176  74.3023 0001607  62.4848 297.6307 15.08838164 19654,6917.886,95.438,540.863,538.639,0.0
52539.0,STARLINK-3757,PAYLOAD,2022-09-16 11:30:21,15.08840555,0.0001524,53.2165,71.3268,73.7094,286.4065,2.0865e-05,4.4e-07,0.0,0 STARLINK-3757,1 52539U 22051G   22259.47941625  .00000044  00000-0  20865-4 0  9995,2 52539  53.2165  71.3268 0001524  73.7094 286.4065 15.08840555 19683,6917.879,95.438,540.798,538.689,0.0
52539.0,STARLINK-3757,PAYLOAD,2022-09-16 17:51:54,15.08834824,0.0001486999999999,53.2183,70.1393,60.2045,299.9095,-2.1131e-05,-6.24e-06,0.0,0 STARLINK-3757,1 52539U 22051G   22259.74438288 -.00000624  00000-0 -21131-4 0  9994,2 52539  53.2183  70.1393 0001487  60.2045 299.9095 15.08834824 19723,6917.896,95.438,540.79,538.7330000000002,0.0
52539.0,STARLINK-3757,PAYLOAD,2022-09-17 09:45:46,15.08834313,0.0001512,53.218,67.1664,55.9401,304.1735,-3.6855e-05,-8.74e-06,0.0,0 STARLINK-3757,1 52539U 22051G   22260.40678545 -.00000874  00000-0 -36855-4 0  9997,2 52539  53.2180  67.1664 0001512  55.9401 304.1735 15.08834313 19827,6917.898,95.438,540.809,538.717,0.0
52539.0,STARLINK-3757,PAYLOAD,2022-09-17 17:42:41,15.08838608,0.0001520999999999,53.2182,65.6798,54.5655,305.5479,1.8025e-07,-2.85e-06,0.0,0 STARLINK-3757,1 52539U 22051G   22260.73798202 -.00000285  00000-0  18025-6 0  9992,2 52539  53.2182  65.6798 0001521  54.5655 305.5479 15.08838608 19872,6917.885,95.438,540.802,538.697,0.0
52539.0,STARLINK-3757,PAYLOAD,2022-09-18 11:11:56,15.08831655,0.0001484,53.2182,62.408,54.7142,305.3988,8.1349e-05,1.007e-05,0.0,0 STARLINK-3757,1 52539U 22051G   22261.46662340  .00001007  00000-0  81349-4 0  9995,2 52539  53.2182  62.4080 0001484  54.7142 305.3988 15.08831655 20052,6917.906,95.438,540.798,538.744,0.0
52539.0,STARLINK-3757,PAYLOAD,2022-09-18 19:08:52,15.08831801,0.0001503,53.2185,60.9207,57.6631,302.4506,7.6295e-05,9.26e-06,0.0,0 STARLINK-3757,1 52539U 22051G   22261.79782507  .00000926  00000-0  76295-4 0  9992,2 52539  53.2185  60.9207 0001503  57.6631 302.4506 15.08831801 20031,6917.905,95.438,540.81,538.731,0.0
52539.0,STARLINK-3757,PAYLOAD,2022-09-19 11:02:43,15.08836505,0.0001526,53.2188,57.9478,59.9996,300.1147,-4.9453e-06,-3.67e-06,0.0,0 STARLINK-3757,1 52539U 22051G   22262.46022654 -.00000367  00000-0 -49453-5 0  9995,2 52539  53.2188  57.9478 0001526  59.9996 300.1147 15.08836505 20137,6917.891,95.438,540.812,538.7,0.0
52539.0,STARLINK-3757,PAYLOAD,2022-09-19 18:59:39,15.08832025,0.0001541999999999,53.2187,56.4607,56.7078,303.4061,-4.2416e-05,-9.63e-06,0.0,0 STARLINK-3757,1 52539U 22051G   22262.79143169 -.00000963  00000-0 -42416-4 0  9999,2 52539  53.2187  56.4607 0001542  56.7078 303.4061 15.08832025 20255,6917.905,95.438,540.837,538.703,0.0
52539.0,STARLINK-3757,PAYLOAD,2022-09-20 09:18:07,15.08837789,0.0001585999999999,53.2189,53.7844,54.8628,305.2513,3.4009e-05,2.53e-06,0.0,0 STARLINK-3757,1 52539U 22051G   22263.38758644  .00000253  00000-0  34009-4 0  9994,2 52539  53.2189  53.7844 0001586  54.8628 305.2513 15.08837789 20274,6917.887,95.438,540.849,538.655,0.0
52539.0,STARLINK-3757,PAYLOAD,2022-09-20 18:50:25,15.08843317,0.0001615,53.2186,52.0006,54.7481,305.3662,7.6143e-05,9.24e-06,0.0,0 STARLINK-3757,1 52539U 22051G   22263.78502100  .00000924  00000-0  76143-4 0  9992,2 52539  53.2186  52.0006 0001615  54.7481 305.3662 15.08843317 20339,6917.87,95.437,540.852,538.618,0.0
52539.0,STARLINK-3757,PAYLOAD,2022-09-21 09:08:54,15.08846251,0.0001814,53.2178,49.3244,52.4182,307.6975,-0.00014091,-2.53e-05,0.0,0 STARLINK-3757,1 52539U 22051G   22264.38118731 -.00002530  00000-0 -14091-3 0  9992,2 52539  53.2178  49.3244 0001814  52.4182 307.6975 15.08846251 20496,6917.861,95.437,540.981,538.471,0.0
52539.0,STARLINK-3757,PAYLOAD,2022-09-21 13:55:03,15.08881621,0.0002446,53.2183,48.4351,47.0829,313.0368,-0.00057872,-9.498e-05,0.0,0 STARLINK-3757,1 52539U 22051G   22264.57989869 -.00009498  00000-0 -57872-3 0  9995,2 52539  53.2183  48.4351 0002446  47.0829 313.0368 15.08881621 20454,6917.753000000002,95.435,541.31,537.9259999999998,0.0
52539.0,STARLINK-3757,PAYLOAD,2022-09-22 13:45:51,15.08859459,0.0002924,53.2181,43.9776,33.4073,326.7103,-0.00021648,-3.734e-05,0.0,0 STARLINK-3757,1 52539U 22051G   22265.57350726 -.00003734  00000-0 -21648-3 0  9999,2 52539  53.2181  43.9776 0002924  33.4073 326.7103 15.08859459 20670,6917.821,95.436,541.7090000000002,537.663,0.0
52539.0,STARLINK-3757,PAYLOAD,2022-09-22 16:56:37,15.0886409,0.0002318,53.2185,43.3806,35.8123,324.3025,-0.00031713,-5.336e-05,0.0,0 STARLINK-3757,1 52539U 22051G   22265.70598494 -.00005336  00000-0 -31713-3 0  9994,2 52539  53.2185  43.3806 0002318  35.8123 324.3025 15.08864090 20620,6917.807,95.436,541.275,538.068,0.0
52539.0,STARLINK-3757,PAYLOAD,2022-09-23 02:28:56,15.08821544,0.0001781999999999,53.2187,41.5943,52.1206,307.9947,0.00032665,4.912e-05,0.0,0 STARLINK-3757,1 52539U 22051G   22266.10342811  .00004912  00000-0  32665-3 0  9993,2 52539  53.2187  41.5943 0001782  52.1206 307.9947 15.08821544 20753,6917.937,95.439,541.035,538.569,0.0
52539.0,STARLINK-3757,PAYLOAD,2022-09-23 08:50:28,15.08839253,0.0002163,53.2187,40.4065,48.4343,311.6834,1.4543e-05,-5.7e-07,0.0,0 STARLINK-3757,1 52539U 22051G   22266.36838903 -.00000057  00000-0  14543-4 0  9996,2 52539  53.2187  40.4065 0002163  48.4343 311.6834 15.08839253 20797,6917.8830000000025,95.438,541.244,538.251,0.0
52539.0,STARLINK-3757,PAYLOAD,2022-09-23 13:36:38,15.08835291,0.0001869,53.2187,39.5122,52.94300000000001,307.1733,-3.6723e-05,-8.72e-06,0.0,0 STARLINK-3757,1 52539U 22051G   22266.56711258 -.00000872  00000-0 -36723-4 0  9991,2 52539  53.2187  39.5122 0001869  52.9430 307.1733 15.08835291 20751,6917.895,95.438,541.053,538.467,0.0
52539.0,STARLINK-3757,PAYLOAD,2022-09-23 15:12:01,15.08836129,0.0001759,53.2189,39.2141,54.1009,306.0146,-3.374e-05,-8.25e-06,0.0,0 STARLINK-3757,1 52539U 22051G   22266.63335172 -.00000825  00000-0 -33740-4 0  9990,2 52539  53.2189  39.2141 0001759  54.1009 306.0146 15.08836129 20763,6917.892,95.438,540.974,538.54,0.0
52539.0,STARLINK-3757,PAYLOAD,2022-09-24 13:27:25,15.0884066,0.0001559,53.2189,35.0493,60.9921,299.1227,4.6233e-05,4.48e-06,0.0,0 STARLINK-3757,1 52539U 22051G   22267.56070607  .00000448  00000-0  46233-4 0  9992,2 52539  53.2189  35.0493 0001559  60.9921 299.1227 15.08840660 20973,6917.878000000002,95.438,540.822,538.665,0.0
52539.0,STARLINK-3757,PAYLOAD,2022-09-24 15:02:48,15.08840811,0.0001724,53.2187,34.7531,54.732,305.3834,2.7741e-05,1.53e-06,0.0,0 STARLINK-3757,1 52539U 22051G   22267.62694717  .00000153  00000-0  27741-4 0  9999,2 52539  53.2187  34.7531 0001724  54.7320 305.3834 15.08840811 20914,6917.878000000002,95.438,540.936,538.55,0.0
52539.0,STARLINK-3757,PAYLOAD,2022-09-25 11:42:49,15.08836339,0.0001683,53.2192,30.8877,57.5319,302.5836,2.5084e-05,1.11e-06,0.0,0 STARLINK-3757,1 52539U 22051G   22268.48806818  .00000111  00000-0  25084-4 0  9993,2 52539  53.2192  30.8877 0001683  57.5319 302.5836 15.08836339 21049,6917.892,95.438,540.9209999999998,538.592,0.0
52539.0,STARLINK-3757,PAYLOAD,2022-09-25 16:28:58,15.08837988,0.0001738,53.2199,29.9958,59.7236,300.3928,4.9524e-05,5e-06,0.0,0 STARLINK-3757,1 52539U 22051G   22268.68678675  .00000500  00000-0  49524-4 0  9990,2 52539  53.2199  29.9958 0001738  59.7236 300.3928 15.08837988 21070,6917.887,95.438,540.9540000000002,538.549,0.0
52539.0,STARLINK-3757,PAYLOAD,2022-09-27 03:27:27,15.08833796,0.0001049,53.2193,23.4493,116.9537,243.1562,-5.336e-05,-1.137e-05,0.0,0 STARLINK-3757,1 52539U 22051G   22270.14407263 -.00001137  00000-0 -53360-4 0  9999,2 52539  53.2193  23.4493 0001049 116.9537 243.1562 15.08833796 21365,6917.899,95.438,540.49,539.039,0.0
52539.0,STARLINK-3757,PAYLOAD,2022-09-27 11:24:23,15.08840081,0.0001378,53.2173,21.9661,76.655,283.4596,3.2839e-05,2.35e-06,0.0,0 STARLINK-3757,1 52539U 22051G   22270.47526848  .00000235  00000-0  32839-4 0  9990,2 52539  53.2173  21.9661 0001378  76.6550 283.4596 15.08840081 21342,6917.88,95.438,540.698,538.7919999999998,0.0
52539.0,STARLINK-3757,PAYLOAD,2022-09-27 14:35:09,15.08834404,0.0001668,53.2198,21.372,50.5174,309.5966,-1.0804e-05,-4.6e-06,0.0,0 STARLINK-3757,1 52539U 22051G   22270.60775373 -.00000460  00000-0 -10804-4 0  9994,2 52539  53.2198  21.3720 0001668  50.5174 309.5966 15.08834404 21369,6917.897,95.438,540.9159999999998,538.609,0.0
52539.0,STARLINK-3757,PAYLOAD,2022-09-28 14:25:57,15.08853542,0.0002465,53.2168,16.9104,12.0948,348.0103,-0.00012322,-2.25e-05,0.0,0 STARLINK-3757,1 52539U 22051G   22271.60135730 -.00002250  00000-0 -12322-3 0  9997,2 52539  53.2168  16.9104 0002465  12.0948 348.0103 15.08853542 21512,6917.839,95.437,541.409,537.999,0.0
52539.0,STARLINK-3757,PAYLOAD,2022-09-29 11:05:58,15.08832008,0.0001804,53.2184,13.0484,37.3011,322.8106,-4.0854e-05,-9.38e-06,0.0,0 STARLINK-3757,1 52539U 22051G   22272.46248587 -.00000938  00000-0 -40854-4 0  9990,2 52539  53.2184  13.0484 0001804  37.3011 322.8106 15.08832008 21715,6917.905,95.438,541.018,538.5219999999998,0.0
